[{"OBJECT_NAME":"STARLINK-36564","OBJECT_ID":"2026-014T","EPOCH":"2026-03-09T15:17:41.786880","MEAN_MOTION":15.75229144,"ECCENTRICITY":7.65e-5,"INCLINATION":97.2845,"RA_OF_ASC_NODE":313.5439,"ARG_OF_PERICENTER":60.982,"MEAN_ANOMALY":299.1521,"EPHEMERIS_TYPE":0,"CLASSIFICATION_TYPE":"U","NORAD_CAT_ID":67549,"ELEMENT_SET_NO":999,"REV_AT_EPOCH":850,"BSTAR":0.0012902,"MEAN_MOTION_DOT":0.00197159,"MEAN_MOTION_DDOT":0},{"OBJECT_NAME":"ARIANE 1 DEB","OBJECT_ID":"1979-104J","EPOCH":"2026-03-08T05:24:14.133312","MEAN_MOTION":10.45586815,"ECCENTRICITY":0.24247109,"INCLINATION":17.8139,"RA_OF_ASC_NODE":117.4319,"ARG_OF_PERICENTER":198.4074,"MEAN_ANOMALY":151.0711,"EPHEMERIS_TYPE":0,"CLASSIFICATION_TYPE":"U","NORAD_CAT_ID":25767,"ELEMENT_SET_NO":999,"REV_AT_EPOCH":37261,"BSTAR":0.0065339867,"MEAN_MOTION_DOT":0.00103114,"MEAN_MOTION_DDOT":0}]
